H-2A R/B                
1 28932U 06002B   26175.17316545  .00006634  00000+0  31865-3 0  9999
2 28932  98.2570 331.6349 0049747 237.9756 121.6637 15.18138696110585
RESURS-DK 1             
1 29228U 06021A   26174.38123095  .00003257  00000+0  18882-3 0  9999
2 29228  69.9346 323.5181 0006567 293.0042  67.0431 15.13241898103512
CZ-4B R/B               
1 29507U 06046C   26175.10921573  .00003172  00000+0  15841-3 0  9992
2 29507  97.5450 219.6949 0031010 257.4390 102.3374 15.17825911 76182
CZ-2C R/B               
1 31114U 07010B   26175.17521397  .00000059  00000+0  45987-4 0  9994
2 31114  98.4103 283.1844 0058593 345.7827  14.1699 14.20277531994838
COSMO-SKYMED 1          
1 31598U 07023A   26175.28651603  .00002597  00000+0  23012-3 0  9993
2 31598  97.8857   7.2018 0001718  92.5084 267.6334 14.97133503 30858
COSMOS 2428             
1 31792U 07029A   26175.15248998 -.00000049  00000+0 -43186-6 0  9999
2 31792  70.9352 339.8524 0007133 121.6662 238.5156 14.12927719979134
SL-16 R/B               
1 31793U 07029B   26175.13057779 -.00000140  00000+0 -47591-4 0  9997
2 31793  70.9773 308.6320 0002434 263.4766 268.9512 14.14855499980423
KORONAS-FOTON           
1 33504U 09003A   26175.00507742  .00009473  00000+0  19396-3 0  9996
2 33504  82.4288 165.1463 0012240 125.9876 234.2510 15.45841766962159
CZ-2C R/B               
1 37731U 11030B   26175.12333209  .00001036  00000+0  13597-3 0  9997
2 37731  97.8656 130.3842 0052454   5.6867   4.9591 14.81486088805859
H-2A R/B                
1 38341U 12025E   26175.18112465  .00001864  00000+0  17053-3 0  9995
2 38341  98.4824 150.9031 0043253 325.6918  34.1508 14.95745512764131
SHIJIAN-16 (SJ-16)      
1 39358U 13057A   26175.27724438  .00000377  00000+0  39414-4 0  9993
2 39358  74.9733 343.2541 0016638 214.2143 145.7974 14.92613677687404
SL-4 R/B                
1 39679U 14021B   26175.19265055  .00008355  00000+0  17490-3 0  9990
2 39679  51.6040 176.4480 0090885 131.4688 229.4146 15.42074549672692
ALOS-2                  
1 39766U 14029A   26175.24061786  .00001307  00000+0  18191-3 0  9995
2 39766  97.9218 272.3032 0001637  93.0107 267.1292 14.79474948652622
YAOGAN-29               
1 41038U 15069A   26175.32941578  .00000283  00000+0  41453-4 0  9990
2 41038  98.0030 203.9738 0002285  43.7561 316.3833 14.83090751571685
ASTRO-H (HITOMI)        
1 41337U 16012A   26174.97264882  .00002148  00000+0  12133-3 0  9991
2 41337  31.0000  30.3642 0009751 321.3491  38.6449 15.10536825568310
HXMT (HUIYAN)           
1 42758U 17034A   26175.30411981  .00003237  00000+0  16365-3 0  9997
2 42758  43.0127 143.4097 0031626 192.5520 167.4543 15.18513789498745
SAOCOM 1A               
1 43641U 18076A   26175.29217345  .00000584  00000+0  79878-4 0  9993
2 43641  97.8890   1.9374 0001592  81.3582 278.7811 14.82153808417151
H-2A R/B                
1 43682U 18084L   26175.18644535  .00017527  00000+0  36540-3 0  9993
2 43682  98.8576  55.6063 0022721  16.6845 343.5142 15.45391472422200
SAOCOM 1B               
1 46265U 20059A   26175.25582646 -.00000257  00000+0 -25737-4 0  9991
2 46265  97.8894   0.9967 0001610  82.9158 277.2239 14.82148217314538
CSS (TIANHE)            
1 48274U 21035A   26175.27077788  .00020499  00000+0  23936-3 0  9992
2 48274  41.4689 278.8848 0007696 138.8892 221.2528 15.61092232294278
CZ-2C R/B               
1 52794U 22058K   26175.15078644  .00034801  00000+0  38045-3 0  9998
2 52794  50.1841 127.2719 0032090 296.5843  63.1844 15.62293766226731
CZ-2C R/B               
1 54039U 22132E   26175.28243560  .00061679  00000+0  46246-3 0  9995
2 54039  97.2900 182.6268 0014790  61.9806 298.2952 15.72299838207060
GSLV R/B                
1 54149U 22138AN  26175.13528987  .00002093  00000+0  17719-3 0  9994
2 54149  87.3811 130.6509 0023663 120.4452 239.9122 14.97283704199850
XRISM                   
1 57800U 23137A   26174.79004407  .00003700  00000+0  20168-3 0  9996
2 57800  31.0028 316.8302 0007845  30.1498 329.9592 15.12515318153862
ACS3                    
1 59588U 24077B   26174.73577366  .00020989  00000+0  15198-1 0  9991
2 59588  97.1690  92.0660 0088941  59.6556 301.3369 13.94539726108955
CZ-8A R/B               
1 66004U 25231K   26175.24906388 -.00000060  00000+0  36925-4 0  9995
2 66004  50.0056   9.2717 0116480 248.8649 109.9785 14.30156622 35952
SZ-21 MODULE            
1 66515U 25246C   26174.61333356  .00037843  00000+0  22797-3 0  9996
2 66515  41.4723 267.2876 0005343  38.8723 321.2505 15.76903759 34759
