OBJECT_NAME,OBJECT_ID,EPOCH,MEAN_MOTION,ECCENTRICITY,INCLINATION,RA_OF_ASC_NODE,ARG_OF_PERICENTER,MEAN_ANOMALY,EPHEMERIS_TYPE,CLASSIFICATION_TYPE,NORAD_CAT_ID,ELEMENT_SET_NO,REV_AT_EPOCH,BSTAR,MEAN_MOTION_DOT,MEAN_MOTION_DDOT
H-2A R/B,2006-002B,2026-06-24T04:09:21.494880,15.18138696,.00497475,98.2570,331.6349,237.9756,121.6637,0,U,28932,999,11058,.31864732E-3,.6634E-4,0
RESURS-DK 1,2006-021A,2026-06-23T09:08:58.354080,15.13241898,.00065671,69.9346,323.5181,293.0042,67.0431,0,U,29228,999,10351,.18882155E-3,.3257E-4,0
CZ-4B R/B,2006-046C,2026-06-24T02:37:16.239072,15.17825911,.003101,97.5450,219.6949,257.4390,102.3374,0,U,29507,999,7618,.15841491E-3,.3172E-4,0
CZ-2C R/B,2007-010B,2026-06-24T04:12:18.487008,14.20277531,.00585932,98.4103,283.1844,345.7827,14.1699,0,U,31114,999,99483,.45986539E-4,.59E-6,0
COSMO-SKYMED 1,2007-023A,2026-06-24T06:52:34.984992,14.97133503,.00017181,97.8857,7.2018,92.5084,267.6334,0,U,31598,999,3085,.230119E-3,.2597E-4,0
COSMOS 2428,2007-029A,2026-06-24T03:39:35.134272,14.12927719,.00071337,70.9352,339.8524,121.6662,238.5156,0,U,31792,999,97913,-.431855E-6,-.49E-6,0
SL-16 R/B,2007-029B,2026-06-24T03:08:01.921056,14.14855499,.00024341,70.9773,308.6320,263.4766,268.9512,0,U,31793,999,98042,-.47590727E-4,-.14E-5,0
KORONAS-FOTON,2009-003A,2026-06-24T00:07:18.689088,15.45841766,.00122401,82.4288,165.1463,125.9876,234.2510,0,U,33504,999,96215,.19395999E-3,.9473E-4,0
CZ-2C R/B,2011-030B,2026-06-24T02:57:35.892576,14.81486088,.00524541,97.8656,130.3842,5.6867,4.9591,0,U,37731,999,80585,.13596936E-3,.1036E-4,0
H-2A R/B,2012-025E,2026-06-24T04:20:49.169760,14.95745512,.00432532,98.4824,150.9031,325.6918,34.1508,0,U,38341,999,76413,.17052547E-3,.1864E-4,0
SHIJIAN-16 (SJ-16),2013-057A,2026-06-24T06:39:13.914432,14.92613677,.00166384,74.9733,343.2541,214.2143,145.7974,0,U,39358,999,68740,.39414254E-4,.377E-5,0
SL-4 R/B,2014-021B,2026-06-24T04:37:25.007520,15.42074549,.00908858,51.6040,176.4480,131.4688,229.4146,0,U,39679,999,67269,.17489835E-3,.8355E-4,0
ALOS-2,2014-029A,2026-06-24T05:46:29.383104,14.79474948,.00016372,97.9218,272.3032,93.0107,267.1292,0,U,39766,999,65262,.18191465E-3,.1307E-4,0
YAOGAN-29,2015-069A,2026-06-24T07:54:21.523392,14.83090751,.00022854,98.0030,203.9738,43.7561,316.3833,0,U,41038,999,57168,.41453178E-4,.283E-5,0
ASTRO-H (HITOMI),2016-012A,2026-06-23T23:20:36.858048,15.10536825,.00097517,31.0000,30.3642,321.3491,38.6449,0,U,41337,999,56831,.12133272E-3,.2148E-4,0
HXMT (HUIYAN),2017-034A,2026-06-24T07:17:55.951584,15.18513789,.00316262,43.0127,143.4097,192.5520,167.4543,0,U,42758,999,49874,.16365163E-3,.3237E-4,0
SAOCOM 1A,2018-076A,2026-06-24T07:00:43.786080,14.82153808,.00015921,97.8890,1.9374,81.3582,278.7811,0,U,43641,999,41715,.79877722E-4,.584E-5,0
H-2A R/B,2018-084L,2026-06-24T04:28:28.878240,15.45391472,.00227216,98.8576,55.6063,16.6845,343.5142,0,U,43682,999,42220,.3654025E-3,.17527E-3,0
SAOCOM 1B,2020-059A,2026-06-24T06:08:23.406144,14.82148217,.00016104,97.8894,0.9967,82.9158,277.2239,0,U,46265,999,31453,-.25736634E-4,-.257E-5,0
CSS (TIANHE),2021-035A,2026-06-24T06:29:55.208832,15.61092232,.00076964,41.4689,278.8848,138.8892,221.2528,0,U,48274,999,29427,.23936011E-3,.20499E-3,0
CZ-2C R/B,2022-058K,2026-06-24T03:37:07.948416,15.62293766,.00320902,50.1841,127.2719,296.5843,63.1844,0,U,52794,999,22673,.38045018E-3,.34801E-3,0
CZ-2C R/B,2022-132E,2026-06-24T06:46:42.435840,15.72299838,.00147905,97.2900,182.6268,61.9806,298.2952,0,U,54039,999,20706,.46246384E-3,.61679E-3,0
GSLV R/B,2022-138AN,2026-06-24T03:14:49.044768,14.97283704,.0023663,87.3811,130.6509,120.4452,239.9122,0,U,54149,999,19985,.17718565E-3,.2093E-4,0
XRISM,2023-137A,2026-06-23T18:57:39.807648,15.12515318,.00078456,31.0028,316.8302,30.1498,329.9592,0,U,57800,999,15386,.20168132E-3,.37E-4,0
ACS3,2024-077B,2026-06-23T17:39:30.844224,13.94539726,.00889412,97.1690,92.0660,59.6556,301.3369,0,U,59588,999,10895,.15197767E-1,.20989E-3,0
CZ-8A R/B,2025-231K,2026-06-24T05:58:39.119232,14.30156622,.01164801,50.0056,9.2717,248.8649,109.9785,0,U,66004,999,3595,.36924729E-4,-.6E-6,0
SZ-21 MODULE,2025-246C,2026-06-23T14:43:12.019584,15.76903759,.00053434,41.4723,267.2876,38.8723,321.2505,0,U,66515,999,3475,.22797097E-3,.37843E-3,0
